SL-14 R/B               
1 21423U 91042B   26055.52262099  .00000452  00000+0  54235-4 0  9994
2 21423  82.4900 232.5312 0015578 285.8918  74.0578 14.81814321851123
ERS-1                   
1 21574U 91050A   26055.49018995  .00000305  00000+0  11235-3 0  9999
2 21574  98.7891  73.3929 0031013 240.4315 119.3780 14.39437522813835
ARIANE 40 R/B           
1 21610U 91050F   26055.15646034  .00000254  00000+0  88633-4 0  9994
2 21610  98.2043 107.8990 0004330 110.4443 249.7213 14.42882431817044
INTERCOSMOS 25          
1 21819U 91086A   26055.20074776  .00001337  00000+0  25626-3 0  9993
2 21819  82.6073 318.1598 1487093 145.9899 224.6211 12.11956560495058
SL-8 R/B                
1 21876U 92008B   26055.13435153  .00000015  00000+0 -83230-6 0  9994
2 21876  82.9237 277.8639 0034817 170.5437 303.1877 13.75969954707550
SL-8 R/B                
1 21938U 92020B   26055.38138995  .00000086  00000+0  73164-4 0  9998
2 21938  82.9344 163.6394 0028281 337.2932  86.0823 13.75547760699306
USA 81                  
1 21949U 92023A   26055.31595662  .00000182  00000+0  59916-4 0  9990
2 21949  85.0109 139.1542 0002736  89.3084 270.8422 14.32362948 92878
COSMOS 2219             
1 22219U 92076A   26055.36369207  .00000350  00000+0  20848-3 0  9996
2 22219  71.0597  45.9250 0019622 224.8595 135.0942 14.14083271716499
SL-16 R/B               
1 22220U 92076B   26055.49353841  .00000270  00000+0  15828-3 0  9992
2 22220  70.9984 216.1695 0010922 120.6200 296.0036 14.16856265719964
COSMOS 2221             
1 22236U 92080A   26055.39530252  .00001779  00000+0  15559-3 0  9992
2 22236  82.5031 291.8161 0012999 234.6078 125.3930 14.96144276778801
SL-16 R/B               
1 22285U 92093B   26055.38285488  .00000171  00000+0  11169-3 0  9995
2 22285  71.0225  32.1990 0005925 308.0439  52.0149 14.15448741711278
COSMOS 2228             
1 22286U 92094A   26055.48724307  .00002355  00000+0  20124-3 0  9993
2 22286  82.5147 249.9537 0017756 351.1110   8.9795 14.97118307774081
