CCSDS_OMM_VERS = 2.0
CREATION_DATE  = 
ORIGINATOR     = 

OBJECT_NAME    = SL-14 R/B
OBJECT_ID      = 1991-042B
CENTER_NAME    = EARTH
REF_FRAME      = TEME
TIME_SYSTEM    = UTC
MEAN_ELEMENT_THEORY = SGP/SGP4

EPOCH          = 2026-02-24T12:32:34.453536
MEAN_MOTION    = 14.81814321
ECCENTRICITY   = .0015578
INCLINATION    = 82.4900
RA_OF_ASC_NODE = 232.5312
ARG_OF_PERICENTER = 285.8918
MEAN_ANOMALY   = 74.0578

EPHEMERIS_TYPE = 0
CLASSIFICATION_TYPE = U
NORAD_CAT_ID   = 21423
ELEMENT_SET_NO = 999
REV_AT_EPOCH   = 85112
BSTAR          = .54235E-4
MEAN_MOTION_DOT = .452E-5
MEAN_MOTION_DDOT = 0

CCSDS_OMM_VERS = 2.0
CREATION_DATE  = 
ORIGINATOR     = 

OBJECT_NAME    = ERS-1
OBJECT_ID      = 1991-050A
CENTER_NAME    = EARTH
REF_FRAME      = TEME
TIME_SYSTEM    = UTC
MEAN_ELEMENT_THEORY = SGP/SGP4

EPOCH          = 2026-02-24T11:45:52.411680
MEAN_MOTION    = 14.39437522
ECCENTRICITY   = .0031013
INCLINATION    = 98.7891
RA_OF_ASC_NODE = 73.3929
ARG_OF_PERICENTER = 240.4315
MEAN_ANOMALY   = 119.3780

EPHEMERIS_TYPE = 0
CLASSIFICATION_TYPE = U
NORAD_CAT_ID   = 21574
ELEMENT_SET_NO = 999
REV_AT_EPOCH   = 81383
BSTAR          = .11235E-3
MEAN_MOTION_DOT = .305E-5
MEAN_MOTION_DDOT = 0

CCSDS_OMM_VERS = 2.0
CREATION_DATE  = 
ORIGINATOR     = 

OBJECT_NAME    = ARIANE 40 R/B
OBJECT_ID      = 1991-050F
CENTER_NAME    = EARTH
REF_FRAME      = TEME
TIME_SYSTEM    = UTC
MEAN_ELEMENT_THEORY = SGP/SGP4

EPOCH          = 2026-02-24T03:45:18.173376
MEAN_MOTION    = 14.42882431
ECCENTRICITY   = .00043306
INCLINATION    = 98.2043
RA_OF_ASC_NODE = 107.8990
ARG_OF_PERICENTER = 110.4443
MEAN_ANOMALY   = 249.7213

EPHEMERIS_TYPE = 0
CLASSIFICATION_TYPE = U
NORAD_CAT_ID   = 21610
ELEMENT_SET_NO = 999
REV_AT_EPOCH   = 81704
BSTAR          = .88632621E-4
MEAN_MOTION_DOT = .254E-5
MEAN_MOTION_DDOT = 0

CCSDS_OMM_VERS = 2.0
CREATION_DATE  = 
ORIGINATOR     = 

OBJECT_NAME    = INTERCOSMOS 25
OBJECT_ID      = 1991-086A
CENTER_NAME    = EARTH
REF_FRAME      = TEME
TIME_SYSTEM    = UTC
MEAN_ELEMENT_THEORY = SGP/SGP4

EPOCH          = 2026-02-24T04:49:04.606464
MEAN_MOTION    = 12.11956560
ECCENTRICITY   = .1487093
INCLINATION    = 82.6073
RA_OF_ASC_NODE = 318.1598
ARG_OF_PERICENTER = 145.9899
MEAN_ANOMALY   = 224.6211

EPHEMERIS_TYPE = 0
CLASSIFICATION_TYPE = U
NORAD_CAT_ID   = 21819
ELEMENT_SET_NO = 999
REV_AT_EPOCH   = 49505
BSTAR          = .25626E-3
MEAN_MOTION_DOT = .1337E-4
MEAN_MOTION_DDOT = 0

CCSDS_OMM_VERS = 2.0
CREATION_DATE  = 
ORIGINATOR     = 

OBJECT_NAME    = SL-8 R/B
OBJECT_ID      = 1992-008B
CENTER_NAME    = EARTH
REF_FRAME      = TEME
TIME_SYSTEM    = UTC
MEAN_ELEMENT_THEORY = SGP/SGP4

EPOCH          = 2026-02-24T03:13:27.972192
MEAN_MOTION    = 13.75969954
ECCENTRICITY   = .00348176
INCLINATION    = 82.9237
RA_OF_ASC_NODE = 277.8639
ARG_OF_PERICENTER = 170.5437
MEAN_ANOMALY   = 303.1877

EPHEMERIS_TYPE = 0
CLASSIFICATION_TYPE = U
NORAD_CAT_ID   = 21876
ELEMENT_SET_NO = 999
REV_AT_EPOCH   = 70755
BSTAR          = -.832305E-6
MEAN_MOTION_DOT = .15E-6
MEAN_MOTION_DDOT = 0

CCSDS_OMM_VERS = 2.0
CREATION_DATE  = 
ORIGINATOR     = 

OBJECT_NAME    = SL-8 R/B
OBJECT_ID      = 1992-020B
CENTER_NAME    = EARTH
REF_FRAME      = TEME
TIME_SYSTEM    = UTC
MEAN_ELEMENT_THEORY = SGP/SGP4

EPOCH          = 2026-02-24T09:09:12.091680
MEAN_MOTION    = 13.75547760
ECCENTRICITY   = .0028281
INCLINATION    = 82.9344
RA_OF_ASC_NODE = 163.6394
ARG_OF_PERICENTER = 337.2932
MEAN_ANOMALY   = 86.0823

EPHEMERIS_TYPE = 0
CLASSIFICATION_TYPE = U
NORAD_CAT_ID   = 21938
ELEMENT_SET_NO = 999
REV_AT_EPOCH   = 69930
BSTAR          = .73164E-4
MEAN_MOTION_DOT = .86E-6
MEAN_MOTION_DDOT = 0

CCSDS_OMM_VERS = 2.0
CREATION_DATE  = 
ORIGINATOR     = 

OBJECT_NAME    = USA 81
OBJECT_ID      = 1992-023A
CENTER_NAME    = EARTH
REF_FRAME      = TEME
TIME_SYSTEM    = UTC
MEAN_ELEMENT_THEORY = SGP/SGP4

EPOCH          = 2026-02-24T07:34:58.651968
MEAN_MOTION    = 14.32362948
ECCENTRICITY   = .0002736
INCLINATION    = 85.0109
RA_OF_ASC_NODE = 139.1542
ARG_OF_PERICENTER = 89.3084
MEAN_ANOMALY   = 270.8422

EPHEMERIS_TYPE = 0
CLASSIFICATION_TYPE = U
NORAD_CAT_ID   = 21949
ELEMENT_SET_NO = 999
REV_AT_EPOCH   = 9287
BSTAR          = .59916E-4
MEAN_MOTION_DOT = .182E-5
MEAN_MOTION_DDOT = 0

CCSDS_OMM_VERS = 2.0
CREATION_DATE  = 
ORIGINATOR     = 

OBJECT_NAME    = COSMOS 2219
OBJECT_ID      = 1992-076A
CENTER_NAME    = EARTH
REF_FRAME      = TEME
TIME_SYSTEM    = UTC
MEAN_ELEMENT_THEORY = SGP/SGP4

EPOCH          = 2026-02-24T08:43:42.994848
MEAN_MOTION    = 14.14083271
ECCENTRICITY   = .0019622
INCLINATION    = 71.0597
RA_OF_ASC_NODE = 45.9250
ARG_OF_PERICENTER = 224.8595
MEAN_ANOMALY   = 135.0942

EPHEMERIS_TYPE = 0
CLASSIFICATION_TYPE = U
NORAD_CAT_ID   = 22219
ELEMENT_SET_NO = 999
REV_AT_EPOCH   = 71649
BSTAR          = .20848E-3
MEAN_MOTION_DOT = .35E-5
MEAN_MOTION_DDOT = 0

CCSDS_OMM_VERS = 2.0
CREATION_DATE  = 
ORIGINATOR     = 

OBJECT_NAME    = SL-16 R/B
OBJECT_ID      = 1992-076B
CENTER_NAME    = EARTH
REF_FRAME      = TEME
TIME_SYSTEM    = UTC
MEAN_ELEMENT_THEORY = SGP/SGP4

EPOCH          = 2026-02-24T11:50:41.718624
MEAN_MOTION    = 14.16856265
ECCENTRICITY   = .0010922
INCLINATION    = 70.9984
RA_OF_ASC_NODE = 216.1695
ARG_OF_PERICENTER = 120.6200
MEAN_ANOMALY   = 296.0036

EPHEMERIS_TYPE = 0
CLASSIFICATION_TYPE = U
NORAD_CAT_ID   = 22220
ELEMENT_SET_NO = 999
REV_AT_EPOCH   = 71996
BSTAR          = .15828E-3
MEAN_MOTION_DOT = .27E-5
MEAN_MOTION_DDOT = 0

CCSDS_OMM_VERS = 2.0
CREATION_DATE  = 
ORIGINATOR     = 

OBJECT_NAME    = COSMOS 2221
OBJECT_ID      = 1992-080A
CENTER_NAME    = EARTH
REF_FRAME      = TEME
TIME_SYSTEM    = UTC
MEAN_ELEMENT_THEORY = SGP/SGP4

EPOCH          = 2026-02-24T09:29:14.137728
MEAN_MOTION    = 14.96144276
ECCENTRICITY   = .0012999
INCLINATION    = 82.5031
RA_OF_ASC_NODE = 291.8161
ARG_OF_PERICENTER = 234.6078
MEAN_ANOMALY   = 125.3930

EPHEMERIS_TYPE = 0
CLASSIFICATION_TYPE = U
NORAD_CAT_ID   = 22236
ELEMENT_SET_NO = 999
REV_AT_EPOCH   = 77880
BSTAR          = .15559E-3
MEAN_MOTION_DOT = .1779E-4
MEAN_MOTION_DDOT = 0

CCSDS_OMM_VERS = 2.0
CREATION_DATE  = 
ORIGINATOR     = 

OBJECT_NAME    = SL-16 R/B
OBJECT_ID      = 1992-093B
CENTER_NAME    = EARTH
REF_FRAME      = TEME
TIME_SYSTEM    = UTC
MEAN_ELEMENT_THEORY = SGP/SGP4

EPOCH          = 2026-02-24T09:11:18.661632
MEAN_MOTION    = 14.15448741
ECCENTRICITY   = .0005925
INCLINATION    = 71.0225
RA_OF_ASC_NODE = 32.1990
ARG_OF_PERICENTER = 308.0439
MEAN_ANOMALY   = 52.0149

EPHEMERIS_TYPE = 0
CLASSIFICATION_TYPE = U
NORAD_CAT_ID   = 22285
ELEMENT_SET_NO = 999
REV_AT_EPOCH   = 71127
BSTAR          = .11169E-3
MEAN_MOTION_DOT = .171E-5
MEAN_MOTION_DDOT = 0

CCSDS_OMM_VERS = 2.0
CREATION_DATE  = 
ORIGINATOR     = 

OBJECT_NAME    = COSMOS 2228
OBJECT_ID      = 1992-094A
CENTER_NAME    = EARTH
REF_FRAME      = TEME
TIME_SYSTEM    = UTC
MEAN_ELEMENT_THEORY = SGP/SGP4

EPOCH          = 2026-02-24T11:41:37.801248
MEAN_MOTION    = 14.97118307
ECCENTRICITY   = .0017756
INCLINATION    = 82.5147
RA_OF_ASC_NODE = 249.9537
ARG_OF_PERICENTER = 351.1110
MEAN_ANOMALY   = 8.9795

EPHEMERIS_TYPE = 0
CLASSIFICATION_TYPE = U
NORAD_CAT_ID   = 22286
ELEMENT_SET_NO = 999
REV_AT_EPOCH   = 77408
BSTAR          = .20124E-3
MEAN_MOTION_DOT = .2355E-4
MEAN_MOTION_DDOT = 0

